OBJECT B                
1 51825U 22019B   24257.82468722  .00033589  00000+0  13277-2 0  9993
2 51825  97.4211 328.2302 0012271 286.9623  73.0269 15.25344275140725
